id,address,city,state,postal_code,country
003500M7Q93CKG2je2,9 Morrow Junction,Albany,NY,12227,United States
003500339Kgli7N5t9,23918 3rd Pass,Tampa,FL,33633,United States
003500oS7XRqSuGyQ2,8 Red Cloud Court,Mount Vernon,NY,10557,United States
0035003Xgg2dDhmjRB,04352 Oakridge Plaza,Gilbert,AZ,85297,United States
003500Sr76b5k8V6n7,04352 Oakridge Plaza,Gilbert,AZ,85297,United States
00350013N3k4H5ICng,04352 Oakridge Plaza,Gilbert,AZ,85297,United States
003500RaRoz9F7h0E1,04352 Oakridge Plaza,Gilbert,AZ,85297,United States
003500BGQMu6tBvkBO,04352 Oakridge Plaza,Gilbert,AZ,85297,United States
0035005L9L6il5M069,04352 Oakridge Plaza,Gilbert,AZ,85297,United States
0035008rcy57yumuP2,19312 Blue Bill Park Point,Glendale,CA,91205,United States
0035000L19GUIxvc3Y,38 Parkside Place,Albany,NY,12242,United States
0035003O1qhXg6R870,4 Ohio Road,San Rafael,CA,94913,United States
0035009iCQ14Zd8Ehu,4 Towne Pass,Naples,FL,33963,United States
003500N4AR9YgXz1bd,2359 Mallard Junction,Vero Beach,FL,32964,United States
003500GOojWHIn4EOl,056 Eliot Place,Los Angeles,CA,90060,United States
0035008aXB7XKrPmP8,559 Eliot Plaza,Concord,CA,94522,United States
003500gR8c9C6IMXj2,295 Toban Hill,Bronx,NY,10469,United States
003500uK0PAjW9keUp,52727 Northwestern Point,Jamaica,NY,11499,United States
003500flk1N8d59J8O,0 Farragut Junction,Los Angeles,CA,90015,United States
0035005I6K3T3mFmtY,32452 Delaware Park,Albany,NY,12242,United States
003500OvvjQA6saV20,345 Moulton Park,Punta Gorda,FL,33982,United States
00350098040043zVN8,345 Moulton Park,Punta Gorda,FL,33982,United States
003500F00np6ZIczKh,282 Dennis Alley,Fresno,CA,93762,United States
003500l3hW3o8G14uW,139 Canary Circle,Bronx,NY,10474,United States
0035006Az5dq9S8h11,28 Scott Court,Tacoma,WA,98464,United States
003500Y8z340Bu22bm,97643 Buhler Drive,Daytona Beach,FL,32128,United States
003500oNdm26460Oh6,6746 Fair Oaks Parkway,Santa Monica,CA,90405,United States
003500ydrQ42clsNBt,1364 Merry Trail,New York City,NY,10292,United States
00350077Tns52dd504,3 Lukken Lane,Sacramento,CA,94286,United States
003500lVp9KJ4vFDvM,81 Armistice Point,Irvine,CA,92619,United States
003500Q1THpJI1q4od,3 Monica Circle,Phoenix,AZ,85015,United States
003500U5s4v0k5M6zQ,814 Green Hill,Spokane,WA,99210,United States
0035009vArDME34yjO,776 Logan Hill,Great Neck,NY,11024,United States
003500I2JVj0e32rc6,08473 Montana Point,Los Angeles,CA,90005,United States
0035006hLm2gnw9qBc,564 Lindbergh Center,San Rafael,CA,94913,United States
0035006305els4r2Oa,68 Bunker Hill Park,Oakland,CA,94622,United States
003500uDsG2WCYNs3s,64 Burrows Avenue,Naples,FL,34114,United States
0035009y2VpvfwX5xX,659 Bluestem Avenue,Delray Beach,FL,33448,United States
003500Nl3uv4dHh9p9,659 Bluestem Avenue,Delray Beach,FL,33448,United States
003500R71ql360rQB1,659 Bluestem Avenue,Delray Beach,FL,33448,United States
00350040xG4s8O0d97,659 Bluestem Avenue,Delray Beach,FL,33448,United States
003500Dx5pB3939316,659 Bluestem Avenue,Delray Beach,FL,33448,United States
003500683z71wcV98h,1 Farmco Street,Albany,NY,12247,United States
003500L2opLW35xtPz,12203 Riverside Junction,Panama City,FL,32412,United States
0035007Bo0aS32BJ45,646 Judy Trail,Panama City,FL,32412,United States
003500fOugv88VcV16,1853 Beilfuss Circle,Orlando,FL,32808,United States
0035008M0gEQ7tf84s,1903 Graceland Terrace,Huntington Beach,CA,92648,United States
0035009S5V0F83IWEj,399 Briar Crest Plaza,Mesa,AZ,85210,United States
003500rT74o9UceN26,38466 Drewry Park,Sacramento,CA,95838,United States
0035000TXz3w03I0LG,3 Vermont Avenue,Bradenton,FL,34282,United States
00350092JBia5iO8KP,7 Rusk Junction,Corona,CA,92883,United States
003500TOi9xMNM5699,6 Grover Pass,New York City,NY,10292,United States
0035002LqcCzE3H31U,0 Fordem Pass,San Francisco,CA,94137,United States
003500o7A9d4qPby31,89446 Debs Lane,Brooklyn,NY,11215,United States
003500fTITU7DGb30k,4590 Moulton Road,Los Angeles,CA,90081,United States
00350046v93XyUfh01,05 Walton Center,Tacoma,WA,98442,United States
003500j0yhN2s03RWS,51287 Browning Avenue,West Palm Beach,FL,33405,United States
003500VDN5i3NkoGOW,6 Milwaukee Road,Oakland,CA,94660,United States
003500scrhJs1HqjIE,17 Merchant Crossing,Mesa,AZ,85210,United States
003500h4JFxVwEiFD6,74452 Eastwood Way,Los Angeles,CA,90020,United States
0035004a7wptJ4t96F,9 Starling Pass,Phoenix,AZ,85030,United States
003500O0yRL1y9KvQD,3834 Pond Alley,Chandler,AZ,85246,United States
0035001WqvubXH4X50,7 Garrison Hill,San Jose,CA,95155,United States
003500AsEpVJxOb9Qx,077 Lakewood Parkway,Miami,FL,33180,United States
003500BDIa153NYoMD,077 Lakewood Parkway,Miami,FL,33180,United States
003500Q51kh2LVX65V,077 Lakewood Parkway,Miami,FL,33180,United States
0035004iivu1Gw2G33,077 Lakewood Parkway,Miami,FL,33180,United States
00350003aY7Gxy6S7z,1 Schmedeman Plaza,Glendale,AZ,85311,United States
003500cm9UM26A9bU8,670 Bellgrove Park,Tucson,AZ,85737,United States
003500H6H2cdbS2fFZ,5180 Burning Wood Park,Tampa,FL,33694,United States
0035007kk5SX58ZKOz,57 Sheridan Point,Fresno,CA,93709,United States
003500Cj39nTG7BZ71,7257 Melby Avenue,Albany,NY,12227,United States
0035006fuL40B1Yyjb,7257 Melby Avenue,Albany,NY,12227,United States
003500uEoO3LAf359F,7257 Melby Avenue,Albany,NY,12227,United States
00350043o14C9clCly,180 Hoard Park,Salem,OR,97312,United States
003500FTtvKawXH41d,95872 Buhler Way,New York City,NY,10125,United States
0035003rdPYx78xOcI,03 6th Street,Orlando,FL,32830,United States
003500k0ao15ExTl4Y,44 Golf Circle,Sacramento,CA,95852,United States
003500lWD831KRT2qt,28 Holy Cross Place,Santa Clara,CA,95054,United States
003500s2n63T7422Tl,5 Washington Road,Fort Lauderdale,FL,33305,United States
0035000b1SfncoZGDd,602 Browning Road,Pensacola,FL,32595,United States
003500QzsqP45hyRl2,066 Luster Parkway,Tampa,FL,33647,United States
003500NoX143wc0nZi,1639 Center Lane,San Jose,CA,95194,United States
0035006m7mCVX2t9h7,310 Arapahoe Drive,Orlando,FL,32819,United States
0035005rpDObIEf7zh,427 Warner Crossing,San Jose,CA,95160,United States
003500BV5gQ6VBzYID,7498 Northfield Junction,Fort Pierce,FL,34981,United States
003500MJ8g855olhce,56 Garrison Junction,Torrance,CA,90505,United States
003500R2CFF8UZHKvG,18491 Oneill Plaza,Syracuse,NY,13251,United States
0035004P3qHJ2ETHz6,1 Oriole Hill,Oakland,CA,94611,United States
0035003vwG00pU7KB6,06974 Trailsway Hill,Fresno,CA,93740,United States
003500689QgUW52WUQ,96 Kenwood Drive,Richmond,CA,94807,United States
003500J2Zar50Y6xFU,29 Oak Pass,Mesa,AZ,85205,United States
003500w19O21j35cDi,29 Oak Pass,Mesa,AZ,85205,United States
003500V5GBRYFcVCF0,29 Oak Pass,Mesa,AZ,85205,United States
003500vc1qylNjU7qb,07322 Prentice Way,Kissimmee,FL,34745,United States
003500w93ohrIAHe0h,70133 Mosinee Circle,Anaheim,CA,92812,United States
0035007Crh77lA618P,04 Sachtjen Avenue,Bronx,NY,10474,United States
003500vwV8UWK8BXF6,34160 Morningstar Street,Delray Beach,FL,33448,United States
0035007sh0XhWOc0uG,7 Rusk Park,Orlando,FL,32808,United States
003500M2cE7oe9NFUZ,6852 South Hill,Bradenton,FL,34282,United States
003500LsE3WgES1STt,84242 Bellgrove Alley,San Diego,CA,92121,United States
003500rW0PlP1j33E3,1 Vahlen Road,New York City,NY,10249,United States
003500D07gx51e0w49,72178 Arrowood Crossing,Inglewood,CA,90310,United States
003500T425ag5q836N,0 Fremont Lane,Everett,WA,98206,United States
00350080ILlZGJ22zK,4522 Bunting Road,Phoenix,AZ,85072,United States
003500TQtpvoXQp1H3,4004 Eastlawn Avenue,Lakewood,WA,98498,United States
003500IltcE351K71G,38533 Hoepker Avenue,Brooklyn,NY,11247,United States
003500UVWe2t11d96D,1358 Graedel Hill,Van Nuys,CA,91406,United States
003500Ld4VTzDIuJi0,4201 Burning Wood Lane,Gainesville,FL,32605,United States
00350038x1Q83nA5l6,6 Farmco Point,Oakland,CA,94616,United States
003500Ww4dl3Xu35f4,12 Crescent Oaks Trail,San Jose,CA,95118,United States
003500oMXV4P569QRW,9 Carberry Center,Fort Pierce,FL,34981,United States
003500j7tuH99llaGq,2 Ruskin Place,Sacramento,CA,94280,United States
003500I52Ck42S66hx,07 Sutherland Road,Seattle,WA,98115,United States
0035001O5jYk1YJw65,81025 Del Sol Street,Seattle,WA,98104,United States
003500m4O17tFf15dh,7 Becker Alley,Tempe,AZ,85284,United States
003500Tmrdg1d8kEHS,62561 Weeping Birch Park,Scottsdale,AZ,85271,United States
003500LN5eoSW0mFKe,969 Blue Bill Park Pass,Miami,FL,33111,United States
0035003Y7JEM54A8iT,3913 Prairie Rose Street,Vero Beach,FL,32969,United States
003500N85rmM1UV7gZ,79628 Anniversary Plaza,Albany,NY,12242,United States
003500mbTQl0I7Ixw0,03922 Fallview Park,Miami,FL,33142,United States
0035007Z1fSX6Dk4rQ,7919 Montana Court,Corona,CA,92878,United States
003500k4v23wk1Rk8x,9 Rutledge Center,New York City,NY,10184,United States
00350029JrN3Uh23RO,5 Badeau Trail,Port Saint Lucie,FL,34985,United States
0035006Bp2tK6QXd25,5 Badeau Trail,Port Saint Lucie,FL,34985,United States
0035006UA878E03l1A,5 Badeau Trail,Port Saint Lucie,FL,34985,United States
003500BSC86k8J7g01,5 Badeau Trail,Port Saint Lucie,FL,34985,United States
003500Ad7GvPk53W3d,5 Badeau Trail,Port Saint Lucie,FL,34985,United States
003500e47qH2X3BBcW,5 Badeau Trail,Port Saint Lucie,FL,34985,United States
003500Xk03D69LZun2,6204 Magdeline Center,Phoenix,AZ,85067,United States
003500yP5dn79m6urq,70 Kingsford Circle,San Francisco,CA,94105,United States
003500u3xBl6Uw4L7m,46630 Del Sol Center,Kent,WA,98042,United States
003500dxuF5cwjp07h,5016 Messerschmidt Junction,Simi Valley,CA,93094,United States
003500MC738MVUb81b,137 Kennedy Court,Phoenix,AZ,85067,United States
0035007zG2HV32Eh32,7548 Mosinee Road,San Jose,CA,95113,United States
0035008IbR14se9TD9,5032 Burning Wood Point,Cape Coral,FL,33915,United States
003500Vw9xrDldby32,37716 Thackeray Lane,Pompano Beach,FL,33069,United States
0035006DD2hq03LTUT,42 Briar Crest Avenue,Irvine,CA,92619,United States
003500eslU3A7Fj7G3,956 Cardinal Junction,Fresno,CA,93750,United States
00350084uo886DHrDb,73744 Harbort Plaza,Sacramento,CA,95813,United States
003500a42212d5W826,05 La Follette Way,San Francisco,CA,94159,United States
0035004yKP4zzWisjH,00108 Park Meadow Alley,San Francisco,CA,94137,United States
003500L3KvJ13l7YIS,388 Hayes Place,Long Beach,CA,90810,United States
003500JbbH76Od1Tea,3622 Melby Street,Redwood City,CA,94064,United States
003500mMxW25G2R7QZ,81507 Caliangt Terrace,Daytona Beach,FL,32123,United States
0035002aAowk63QeJO,6987 North Hill,Redwood City,CA,94064,United States
003500P9pODuN0jwtI,96226 Hooker Junction,Vero Beach,FL,32969,United States
0035000tS8hz8AAlRg,96226 Hooker Junction,Vero Beach,FL,32969,United States
003500MuNq358WbRs7,96226 Hooker Junction,Vero Beach,FL,32969,United States
003500p6D3p0DWBa6O,815 Paget Way,Prescott,AZ,86305,United States
003500rbHRuu2zrAR2,57114 Redwing Avenue,Los Angeles,CA,90005,United States
0035007d5ifYxgSYSh,610 Banding Street,Fresno,CA,93704,United States
003500tuUshz0KLxs9,7 Maryland Terrace,Fort Lauderdale,FL,33325,United States
0035006nK6uUMMk0Dg,4635 Walton Junction,Sacramento,CA,95818,United States
003500KQcx1XK81UIW,10230 Truax Street,Spokane,WA,99252,United States
003500N71o4owF86pt,10 Upham Lane,White Plains,NY,10633,United States
0035008SZC9q6QjTdZ,42746 Cottonwood Plaza,Yonkers,NY,10705,United States
003500v5o9O8C42L2q,8671 Ruskin Street,Corona,CA,92883,United States
0035006D3IuA7O0fsS,94 Huxley Way,Riverside,CA,92505,United States
003500Z9Z4H9vD1m07,7102 Holy Cross Junction,Palmdale,CA,93591,United States
003500yYfKRIdkZAwK,9 Mallory Pass,Phoenix,AZ,85072,United States
003500q3th00hlURA0,0 Kennedy Junction,Seattle,WA,98166,United States
0035006fDg6DFSm34e,964 Farragut Place,New York City,NY,10120,United States
003500ka7t61oU0n9B,57174 Boyd Road,Sunnyvale,CA,94089,United States
003500Zs6s2zj1bo7k,280 Southridge Circle,Riverside,CA,92519,United States
003500Y0MEoDP7VLb9,71055 Graceland Place,Mount Vernon,NY,10557,United States
003500EAt2wyw3IIgI,76827 Hayes Lane,San Rafael,CA,94913,United States
003500diigi29cu2vY,20 Sutherland Crossing,San Jose,CA,95123,United States
003500q9u08pt23wW0,04 Ridgeview Point,Anaheim,CA,92805,United States
0035007Ygt061hD3I4,04 Ridgeview Point,Anaheim,CA,92805,United States
003500vd2P39uD9A9F,04 Ridgeview Point,Anaheim,CA,92805,United States
0035001Biv15iSBQ77,04 Ridgeview Point,Anaheim,CA,92805,United States
0035007u37z527zb2B,04 Ridgeview Point,Anaheim,CA,92805,United States
003500WEyt13CtVgmT,940 Jay Court,South Lake Tahoe,CA,96154,United States
0035002vJ4t6FuiEhl,23 Susan Road,West Palm Beach,FL,33405,United States
0035004B752NfIz8xh,675 Anthes Circle,Lake Worth,FL,33462,United States
003500T07914RnCD1g,96343 Annamark Junction,New York City,NY,10009,United States
003500z929rT188Ihv,8 Dennis Trail,Naples,FL,34102,United States
003500v941LL10YNMG,81633 Vidon Avenue,Modesto,CA,95354,United States
003500I6qGE48t5Fn2,3 Lakewood Street,Jacksonville,FL,32277,United States
003500856OnMVb4D0Y,93 Hoffman Crossing,Fresno,CA,93778,United States
003500t61dK52Zj1Zb,93 Hoffman Crossing,Fresno,CA,93778,United States
003500GQ2c0731aT97,93 Hoffman Crossing,Fresno,CA,93778,United States
003500log9I3624a0G,42010 Ryan Hill,Naples,FL,33961,United States
00350072n2l4n3qGn3,8540 Fremont Hill,Boca Raton,FL,33487,United States
0035002AiPES5C5D76,45 Jenifer Street,Tampa,FL,33620,United States
0035006KUqtc29t6wY,5 Paget Plaza,Clearwater,FL,34620,United States
003500MAf5FNFoUTtf,29 Farragut Court,Anaheim,CA,92812,United States
003500dg4X5NO3N7sU,9504 Mandrake Hill,Los Angeles,CA,90087,United States
003500lc4Tsyt8mqcm,38938 Upham Crossing,San Jose,CA,95173,United States
003500vwnqy800Ml35,650 Sullivan Terrace,Boynton Beach,FL,33436,United States
00350057vCb4sc4301,562 Dennis Place,Albany,NY,12247,United States
003500913ZDix7s5h3,68 Delladonna Trail,Fresno,CA,93709,United States
003500A39T12EAwfje,6 Fulton Park,San Francisco,CA,94132,United States
003500OC3sNU3pyrrG,82 Lindbergh Place,Buffalo,NY,14210,United States
003500flQfOQxu3uFR,54 Buell Center,Modesto,CA,95397,United States
003500Un2g7d0CIV64,0 Huxley Alley,Lakeland,FL,33811,United States
003500h5TGE5Q56Cl9,7421 Donald Street,Zephyrhills,FL,33543,United States
003500Y15Z1x0le33v,20620 Gerald Court,Miami,FL,33134,United States
003500L7vJvQZSfiU2,3 Westport Pass,Albany,NY,12237,United States
003500uY9q3SmRn44F,837 Haas Point,Simi Valley,CA,93094,United States
003500P7ImOR6r5WDT,8 Butterfield Street,Portland,OR,97286,United States
003500UYuJiK726qJ8,8362 Mccormick Crossing,Miami Beach,FL,33141,United States
0035002460CKF72695,515 Shoshone Center,New York City,NY,10150,United States
003500C822642I6m6w,1538 Hoard Parkway,Tacoma,WA,98411,United States
003500UXAT931P60Lv,97 Dovetail Alley,Olympia,WA,98516,United States
003500dqD85T7dGlFB,50550 Farragut Hill,Seattle,WA,98109,United States
003500Q7t0aJLhkP17,17687 Northridge Court,Oakland,CA,94627,United States
003500RH41JjfM84YG,76228 American Ash Avenue,New York City,NY,10150,United States
003500AW6l0t814Izh,42231 Meadow Ridge Way,San Diego,CA,92110,United States
003500P4JBAE7H0NuX,5 Holy Cross Alley,Huntington Beach,CA,92648,United States
003500BEE1Ho6ME0PZ,81 Del Mar Lane,Seattle,WA,98104,United States
0035004i5JgdLX89W7,8485 Hazelcrest Plaza,Fresno,CA,93704,United States
003500h2F6bdOlI33z,1 Canary Point,San Diego,CA,92127,United States
003500V5ttgzfwq53W,74052 Arizona Lane,Everett,WA,98206,United States
003500w2C2Cp536aWt,84 Westerfield Parkway,Vancouver,WA,98664,United States
003500oLKL95OQC2K2,4 Fremont Avenue,Newport Beach,CA,92662,United States
00350053e63OZfRP60,2 Pleasure Avenue,San Bernardino,CA,92405,United States
00350086XAOlm5X11w,768 Namekagon Center,Bradenton,FL,34205,United States
003500InKbEnCUG58r,280 Brentwood Junction,Miami,FL,33185,United States
003500S9LKFd3u5Mz4,843 Stang Road,Brooklyn,NY,11220,United States
00350086q3Y3ET68Yp,64 Knutson Crossing,Sacramento,CA,94250,United States
003500XE2ZuoB4LDVg,64 Knutson Crossing,Sacramento,CA,94250,United States
003500II4Rf3V6XMmL,64 Knutson Crossing,Sacramento,CA,94250,United States
003500JTc5050dCvcU,64 Knutson Crossing,Sacramento,CA,94250,United States
003500F082Z3r3MJ2S,90 Green Street,Hialeah,FL,33013,United States
00350031Kld8yClXC7,512 Mayer Parkway,Jamaica,NY,11480,United States
003500fgWvb2967PZ2,31568 Continental Point,Riverside,CA,92505,United States
003500Oso0dLmOA649,0152 Maple Parkway,Los Angeles,CA,90055,United States
003500N29qETM6vgCZ,76320 Kenwood Point,San Bernardino,CA,92424,United States
003500LP1c4AB8FEke,9 Golf Trail,Berkeley,CA,94712,United States
003500Rqwk2MWbuy8t,705 Bartillon Alley,Pensacola,FL,32575,United States
00350069eVKyJMB91h,98422 Dexter Center,Salem,OR,97306,United States
003500xde9K8qos2B0,791 Butterfield Road,San Francisco,CA,94154,United States
003500hu7nSC08ap4A,16 Mcbride Parkway,Burbank,CA,91505,United States
003500W6n7zG9eOmxM,07694 Loomis Court,Van Nuys,CA,91499,United States
003500xjkifEGsc177,7 Kedzie Pass,Portland,OR,97216,United States
00350098bBJpI0tOEo,854 Grayhawk Parkway,Moreno Valley,CA,92555,United States
003500UaQAZbl2Td7d,18 Cascade Pass,Tallahassee,FL,32309,United States
00350096R1tGJKl884,43 Anderson Court,Santa Ana,CA,92705,United States
0035009QYRaSHZxqQW,97 Red Cloud Lane,Newport Beach,CA,92662,United States
003500NwVjvLuK2mH3,5 Mallard Circle,San Jose,CA,95160,United States
003500395RWMk34B95,94415 Old Gate Court,Portland,OR,97255,United States
0035002vLukDdG6e9P,09 Forest Run Pass,Syracuse,NY,13205,United States
0035005U0LL59bs4pt,535 Swallow Center,San Francisco,CA,94169,United States
00350018qAt9pmP9ON,7287 8th Street,Syracuse,NY,13224,United States
003500KW63uRwRLkv9,7287 8th Street,Syracuse,NY,13224,United States
003500GWA45mF6GfWt,7287 8th Street,Syracuse,NY,13224,United States
003500A1eIRd6B5s57,22 Scoville Hill,Albany,NY,12232,United States
003500T4wyk7WU9j4p,193 Leroy Hill,West Palm Beach,FL,33405,United States
003500J0L3E6j3CNfZ,30208 Milwaukee Drive,Santa Barbara,CA,93106,United States
003500TjX1Z09Sa135,937 Green Pass,Sarasota,FL,34238,United States
00350039Bj8eVuc657,8729 Mariners Cove Lane,Torrance,CA,90510,United States
0035003c3jT2tlJtI5,5972 6th Alley,Albany,NY,12242,United States
003500mFZeu1edNk2l,39302 Hollow Ridge Terrace,Brooklyn,NY,11225,United States
003500OKDWwg91bEgW,29442 Village Point,Prescott,AZ,86305,United States
003500nRdG2sp05ioj,2 Summit Center,Orlando,FL,32803,United States
003500hI7Cp4q74NmM,2 Summit Center,Orlando,FL,32803,United States
003500En0uYVN74XCE,2 Summit Center,Orlando,FL,32803,United States
003500se14JmU32YhW,2 Summit Center,Orlando,FL,32803,United States
0035001L6Rp0Pf25dG,5 Daystar Circle,Tampa,FL,33633,United States
0035000ytHv6vCrUoi,006 Dennis Pass,San Francisco,CA,94110,United States
003500V4goNW9WdiL6,764 Hanover Point,Fort Lauderdale,FL,33325,United States
003500rJLf39z312O0,0 Meadow Vale Drive,San Bernardino,CA,92424,United States
003500m3jjR3S8d408,306 Spenser Court,Los Angeles,CA,90087,United States
003500F3HusU9PiDxb,71398 Shasta Junction,Brooksville,FL,34605,United States
0035001tu4eJNs2wwp,5023 Dapin Point,Sacramento,CA,94291,United States
003500WNCFa8i9mLD8,311 Heath Road,San Jose,CA,95194,United States
003500j12IospCgI2a,3 Milwaukee Court,Fort Myers,FL,33906,United States
003500hwIE9I5jWi7b,4770 Merchant Parkway,Syracuse,NY,13251,United States
0035003ZVpsNlpn40V,77167 Old Gate Lane,Albany,NY,12242,United States
003500vNk009Y7d355,53 Autumn Leaf Avenue,Tucson,AZ,85743,United States
003500pmFONlsf3bAe,2 Nova Terrace,Seattle,WA,98175,United States
0035009wUDRKg75Cfr,8 Lien Circle,Corona,CA,92883,United States
003500BvqRZqf3oA6a,8 Lien Circle,Corona,CA,92883,United States
0035004ik1s0svcOcT,8 Lien Circle,Corona,CA,92883,United States
003500igfHdh18x7dV,8 Lien Circle,Corona,CA,92883,United States
003500wL16l6fSv4Hd,8 Lien Circle,Corona,CA,92883,United States
003500zFesH2wD60xW,8 Lien Circle,Corona,CA,92883,United States
003500UapYfMDceIGr,234 Golf View Road,Portland,OR,97216,United States
0035006HKo3OTa0k7J,288 Aberg Parkway,Seattle,WA,98158,United States
0035002s7Nq05EF8xD,83 Sage Pass,Berkeley,CA,94712,United States
003500NNi20dX5N48B,9 Killdeer Park,Naples,FL,33963,United States
0035006W1b63W58xDD,844 Kensington Crossing,Huntington Beach,CA,92648,United States
003500dH1x9pVtV26u,49 Fordem Circle,Lakeland,FL,33805,United States
003500ahT05CviC39Z,719 Claremont Lane,Tampa,FL,33647,United States
003500aum78SWcKyze,55764 Clove Circle,Port Saint Lucie,FL,34985,United States
003500a5aJ1C4HX9WT,67510 Nelson Hill,Jacksonville,FL,32230,United States
0035009a1f11C9aVaU,0832 Del Mar Plaza,Fort Myers,FL,33913,United States
0035005Pz9N3OsIw9S,96 Aberg Place,Oakland,CA,94627,United States
003500aI5YD5CG9V00,247 Spaight Plaza,Fresno,CA,93750,United States
0035008TA9yOys0041,247 Spaight Plaza,Fresno,CA,93750,United States
0035003Fl137Q3d3qv,2337 Forest Dale Alley,San Jose,CA,95128,United States
003500gA6JnVljQ6C8,05166 Glacier Hill Plaza,San Jose,CA,95150,United States
0035006J26t0jIB697,85880 4th Pass,Escondido,CA,92030,United States
003500j8Zk5Ut311Yr,20833 Express Junction,San Diego,CA,92127,United States
0035003QdbQV5ACTe8,0672 Dawn Road,Jamaica,NY,11447,United States
003500Ao4iXrcpDurV,0 Nevada Place,Tucson,AZ,85737,United States
003500uC3ZpVOyL2tH,23 West Place,Miami,FL,33233,United States
003500n0gb8ie40bb8,1 Vernon Trail,Jacksonville,FL,32255,United States
003500J68QFWrf7IWP,82315 Jackson Hill,Mesa,AZ,85205,United States
00350089PyAWZ0esRx,71 Packers Street,Fresno,CA,93786,United States
003500cShFUm3ac4gQ,392 Hayes Plaza,Fresno,CA,93786,United States
00350001YmW09QK4zA,96 Pawling Drive,Phoenix,AZ,85083,United States
003500dJ715Xcp7LAk,20582 Michigan Alley,Vancouver,WA,98664,United States
003500N2zvLyaFQ82q,99856 Hermina Circle,Portland,OR,97255,United States
003500re29J3351kf9,22222 Carey Avenue,North Hollywood,CA,91606,United States
003500o3sS96o99I43,96136 Melody Way,Kissimmee,FL,34745,United States
0035007wc9l8dg3z6c,2 Stone Corner Place,Pasadena,CA,91199,United States
00350039yX48I6VkE6,2 Stone Corner Place,Pasadena,CA,91199,United States
0035007MEGFS38N55F,2 Stone Corner Place,Pasadena,CA,91199,United States
003500pMgt8vx52NOc,2 Stone Corner Place,Pasadena,CA,91199,United States
003500m8fqulK0dAm2,2 Stone Corner Place,Pasadena,CA,91199,United States
003500G74Gl81jIz88,88 Moulton Way,Tacoma,WA,98411,United States
003500AvnQ8h9sqtu2,068 Westport Street,Jacksonville,FL,32236,United States
003500173HM3eL5fTX,9 Melrose Trail,Fresno,CA,93762,United States
003500RUqMvos4Nfr1,754 Rigney Road,Los Angeles,CA,90020,United States
003500Bd683eeSnZi9,34 Village Avenue,Boca Raton,FL,33499,United States
003500LJ3eRQiwh8v0,19946 Gerald Parkway,Torrance,CA,90505,United States
003500T5fqoOt140A8,35594 International Road,Pasadena,CA,91125,United States
003500atxqDjOhTlG4,0 Rusk Park,Chico,CA,95973,United States
003500i2eMbdi03ylb,67148 Eagle Crest Hill,Buffalo,NY,14263,United States
003500O695RaO6b8k0,9240 Delladonna Park,San Francisco,CA,94169,United States
003500viI6n6i7ow17,9240 Delladonna Park,San Francisco,CA,94169,United States
003500HvlMlTis3sMo,9240 Delladonna Park,San Francisco,CA,94169,United States
003500A8iV9tJQ68A5,31 Thompson Circle,Schenectady,NY,12325,United States
003500HlE3SYSfR06T,03102 Melody Place,West Palm Beach,FL,33421,United States
0035009pspHe8rho3g,6 Hansons Park,Los Angeles,CA,90020,United States
003500pvAqq5ZlWD18,09810 Village Crossing,Pasadena,CA,91199,United States
003500tMWa6hLSZR7s,17 Transport Plaza,Tucson,AZ,85732,United States
00350011T0WQN6L892,04 Pearson Point,Melbourne,FL,32941,United States
003500JZPp11t1JvtL,1 Maryland Drive,Rochester,NY,14624,United States
003500B3a6aixUq68F,73634 Darwin Pass,Sacramento,CA,94230,United States
003500xCzSIKo3g6Zp,807 Hovde Court,New York City,NY,10045,United States
003500MFEp0i330gOJ,523 Hauk Road,Melbourne,FL,32941,United States
003500aXNQm6foM9I3,8 Hanover Parkway,Portland,OR,97216,United States
003500Zyd0gg2ikv52,330 Loeprich Circle,San Francisco,CA,94132,United States
003500I5sFZp2866fG,5360 East Point,San Francisco,CA,94154,United States
003500ecp978m2TL64,4111 Bay Court,San Francisco,CA,94169,United States
003500b2dh3V1YOw6t,273 Shoshone Parkway,Vero Beach,FL,32969,United States
00350022Ue6a0fpQHC,273 Shoshone Parkway,Vero Beach,FL,32969,United States
003500WKc2KN176k85,273 Shoshone Parkway,Vero Beach,FL,32969,United States
003500QQM481GZ3NFj,80 Clarendon Way,Daytona Beach,FL,32118,United States
003500zBujWw21I36n,83 Utah Junction,Glendale,CA,91205,United States
003500K4u90zgQ7h9A,822 Knutson Hill,Tampa,FL,33615,United States
0035001zMjJu1E8KPd,4 Everett Alley,Fort Pierce,FL,34981,United States
003500M78lp53csb0X,81841 Everett Parkway,Pensacola,FL,32520,United States
0035001tt3BBU244ge,383 1st Point,Fresno,CA,93794,United States
003500P5ys6aJwkuoN,70283 Jenna Hill,Port Saint Lucie,FL,34985,United States
0035000Lx0iLE6todJ,1493 Union Pass,Ocala,FL,34479,United States
0035003rtMAN8hxEMr,874 Superior Crossing,San Francisco,CA,94132,United States
003500kmv5rNGZ9rq1,19575 Bashford Road,Bradenton,FL,34205,United States
003500uIYQTB26kwnB,1 Hovde Road,Pasadena,CA,91125,United States
00350058dSB2Z93Oyy,29 Merchant Way,Naples,FL,34114,United States
003500wiiA2ziXS033,6 Lunder Court,White Plains,NY,10633,United States
003500g1I2j9g6nEVM,75 New Castle Pass,Vancouver,WA,98687,United States
003500MauCd2t5Vt33,71 Nova Place,Hicksville,NY,11854,United States
00350026J6V0AWLsd2,79 Reindahl Trail,Sacramento,CA,94257,United States
003500ZZbw99bMj0JS,7205 Myrtle Terrace,Pompano Beach,FL,33064,United States
003500tbLnm7H78RLQ,41326 Texas Junction,New York City,NY,10125,United States
00350062Z0x939pqC8,6819 Reinke Place,Buffalo,NY,14263,United States
0035002ly2fYan8V5J,5 Del Sol Crossing,Riverside,CA,92519,United States
003500Z5VY6kYsI5LJ,5 Village Crossing,Boca Raton,FL,33487,United States
003500n77Oy1O8uXuO,02 Sycamore Street,Clearwater,FL,33763,United States
00350084ZF3p08X4fS,675 Thackeray Junction,Clearwater,FL,34629,United States
0035003nK33vU0y5vS,07012 Bunker Hill Plaza,New York City,NY,10155,United States
003500i3DmdB6MVBr0,8074 Charing Cross Avenue,Portland,OR,97255,United States
0035009XtDO64w1w2m,3175 Scofield Avenue,South Lake Tahoe,CA,96154,United States
003500st68p4seDPXf,8601 Moland Pass,Sacramento,CA,94245,United States
003500888a2jQtQBS6,033 Lakewood Gardens Road,Sacramento,CA,95813,United States
0035006O8qH5W8AA3Z,09863 Northland Court,Phoenix,AZ,85030,United States
0035008rYt02UMKZ8A,3 Kropf Street,Fort Myers,FL,33994,United States
003500K4MLeS60SHJ6,951 Maywood Way,Miami,FL,33158,United States
003500v1G6SHz76Hy4,20546 Doe Crossing Way,Orlando,FL,32803,United States
003500v7PpUn8jggx1,60952 Golden Leaf Alley,Jacksonville,FL,32259,United States
003500Z8iPgFVm3L5D,3 4th Center,San Francisco,CA,94164,United States
0035003ZSN3EjT1Dln,74 Vahlen Lane,New York City,NY,10260,United States
003500DbcXaJe64OE7,55960 Forest Dale Street,Flushing,NY,11388,United States
003500BPrAV0l3Os4g,55960 Forest Dale Street,Flushing,NY,11388,United States
003500LAoKnK9c4O2w,55960 Forest Dale Street,Flushing,NY,11388,United States
003500nriRxYFLNUNR,55960 Forest Dale Street,Flushing,NY,11388,United States
0035000AQ51SGIUaIJ,55960 Forest Dale Street,Flushing,NY,11388,United States
0035008h44XwbE21N8,08778 Rusk Center,Daytona Beach,FL,32123,United States
003500IUQv80JmV4RS,0006 Quincy Alley,Orlando,FL,32854,United States
0035008K7zi1d12Y4E,210 Elgar Street,Sacramento,CA,94297,United States
0035001rkz6EFX7eAg,681 Novick Way,Flushing,NY,11355,United States
0035009ebQVW06smS4,9 Union Lane,Escondido,CA,92030,United States
0035004CsBQ84jtADN,80 Crescent Oaks Pass,New York City,NY,10019,United States
003500K9xL4gf1k8MV,590 Bunting Avenue,New York City,NY,10292,United States
00350098rfLkUlL4vM,9996 Mesta Pass,Buffalo,NY,14215,United States
00350015ExSP93wyqy,91010 Carpenter Point,San Diego,CA,92110,United States
003500x1kOs78Z17Xe,55 Northridge Pass,Flushing,NY,11388,United States
003500xw1W1u0ZGqaL,47990 Dovetail Lane,Seattle,WA,98133,United States
0035001IvBl058a0uR,06252 Forest Terrace,Vancouver,WA,98682,United States
0035008tOwSsU7F6kx,97 Lien Plaza,Seattle,WA,98133,United States
0035004x8a8zs4EA1F,76012 Lakewood Drive,Chandler,AZ,85246,United States
003500x4YZ2ccPNiF0,6659 Lotheville Way,San Francisco,CA,94154,United States
003500384Mno4Y0urE,6 Gina Court,Los Angeles,CA,90005,United States
0035002XykHpV9Iw1i,4 Park Meadow Terrace,Orlando,FL,32825,United States
003500RmS3c5H433aB,3106 Westerfield Lane,Gainesville,FL,32605,United States
003500oF1GvWfa2E2A,57137 Chive Street,Los Angeles,CA,90050,United States
0035005WQA540B6q36,0 Spenser Avenue,Albany,NY,12210,United States
003500rN9g8Wa4yf6U,1447 Shoshone Way,Clearwater,FL,34620,United States
003500g2DxQOpBtXp7,89 Schlimgen Place,Van Nuys,CA,91406,United States
003500B30gxJz6HLkg,878 Quincy Lane,West Palm Beach,FL,33411,United States
003500Y3TSu0Us0pQX,08831 Chinook Junction,Sacramento,CA,95852,United States
003500332fMyiW4bSr,0247 Onsgard Alley,Rochester,NY,14614,United States
003500a1HStQ3n7Q1P,78939 Prairieview Circle,Albany,NY,12232,United States
00350021Bf8xXV1399,2494 Dexter Trail,Anaheim,CA,92825,United States
00350072Fu4z80YkJb,2578 Texas Lane,West Palm Beach,FL,33411,United States
0035009TKe2TX5O400,2578 Texas Lane,West Palm Beach,FL,33411,United States
0035006g3DrEuX1irY,2578 Texas Lane,West Palm Beach,FL,33411,United States
0035004Ocxfpy8d1PR,2578 Texas Lane,West Palm Beach,FL,33411,United States
003500bcSG2KOnXTYZ,2578 Texas Lane,West Palm Beach,FL,33411,United States
003500nk5Sw153L796,15 New Castle Trail,Scottsdale,AZ,85260,United States
003500ou6m7nwoM97f,64654 Little Fleur Way,Tampa,FL,33625,United States
003500z3gvw5rI7575,6992 Rieder Road,Vero Beach,FL,32964,United States
0035009Hy8xWstsWZd,544 Gerald Lane,Albany,NY,12262,United States
003500GrHQOL2gN4tk,05 Westend Road,Corona,CA,92883,United States
003500s8xjcs5gSOp7,35093 Namekagon Way,Miami,FL,33245,United States
003500i0u6fS4TF5ob,32206 Debs Terrace,Albany,NY,12242,United States
0035006OEqU5BM8iIU,0 Graedel Lane,Fort Myers,FL,33906,United States
00350050FU62h93L2Y,15609 Weeping Birch Hill,San Jose,CA,95108,United States
003500RM8KG5TuAj18,37 Golf Alley,Tucson,AZ,85710,United States
003500UwMRXAT27ijt,3 Mitchell Avenue,Phoenix,AZ,85020,United States
003500dkfZapy8p1k6,871 1st Center,Los Angeles,CA,90094,United States
0035000cR0E2vOfV9I,44900 Ronald Regan Plaza,San Francisco,CA,94169,United States
003500lR3NlUoOYb4T,19553 Vernon Hill,New York City,NY,10160,United States
003500l9pSvTJJtAJ1,5985 Atwood Avenue,Saint Petersburg,FL,33737,United States
003500tnz21UQ3nFgg,9148 Buell Circle,Sacramento,CA,94250,United States
003500Z83a5bEctq30,25775 Hermina Point,Miami,FL,33124,United States
003500gDN711iM7wUw,24081 Tennessee Crossing,Gainesville,FL,32605,United States
003500s56Sn5342hl2,7 Carberry Lane,Phoenix,AZ,85067,United States
003500J0I0Hp2ZIjXJ,979 Westerfield Circle,New York City,NY,10155,United States
003500dC1uSg7AVxO5,69636 Main Alley,San Bernardino,CA,92405,United States
0035000cct2du76PK6,63 Corben Pass,Torrance,CA,90510,United States
003500r92x0JB68FrW,7 Portage Circle,San Bernardino,CA,92410,United States
003500il37mIF4FgH7,88 Hoffman Street,Santa Clara,CA,95054,United States
003500fH0wu7I96wPy,54135 Hanover Junction,Miami,FL,33190,United States
003500OxsizVzz30DU,33 Service Place,San Francisco,CA,94164,United States
0035004b80lnYawf8v,70 Forest Dale Park,Stockton,CA,95219,United States
003500emxykY34PTXp,1265 Marcy Court,Boca Raton,FL,33432,United States
003500N2B93XlWF0jB,8 Rieder Plaza,Fort Lauderdale,FL,33330,United States
003500Ss682eYL8Jb8,49097 Pine View Court,New York City,NY,10260,United States
0035005E90RTRaRZFi,8 Mallard Court,Orlando,FL,32835,United States
003500mL8Wjgj0YOiT,3720 Becker Park,Miami,FL,33169,United States
003500CmJDUy2Z0y25,74577 Washington Road,Albany,NY,12232,United States
003500HqJvkA1hs98g,3 Blaine Circle,Gilbert,AZ,85297,United States
0035009po7cNb44080,4 Superior Point,Santa Barbara,CA,93106,United States
00350098w3Oci5LXFK,07 Stoughton Junction,Phoenix,AZ,85015,United States
003500T4nG07oeszvc,214 Crest Line Circle,Long Beach,CA,90847,United States
003500j1TnE9R6VFC2,665 Union Way,Tacoma,WA,98442,United States
003500tu83uv0QMijI,11419 Kings Pass,Fresno,CA,93715,United States
003500O4Vw8mX97YAT,642 Steensland Alley,Miami,FL,33261,United States
003500eX85gHI1SFtP,356 Derek Way,Long Beach,CA,90805,United States
003500KYwZ7bGySsY7,62081 Donald Drive,Portland,OR,97240,United States
003500fx8rnDC6ws8x,10078 Packers Junction,Pinellas Park,FL,34665,United States
003500VLReF3KzVS8l,60 Garrison Road,Fresno,CA,93740,United States
0035001191jYWL583y,8578 Ryan Trail,Pensacola,FL,32595,United States
003500A24o2PH8GIw0,333 Cambridge Avenue,Sarasota,FL,34276,United States
003500w6yaXe7E2P8f,015 Acker Place,San Francisco,CA,94169,United States
003500iKoiifIO24fw,2958 Little Fleur Circle,Tucson,AZ,85715,United States
003500Lb6uVG7YKA0g,4 Division Park,Everett,WA,98206,United States
00350072m74A3t32p9,4369 Elmside Crossing,San Luis Obispo,CA,93407,United States
00350045A3bKaTMsTg,4369 Elmside Crossing,San Luis Obispo,CA,93407,United States
003500oVL7G00f8Z03,4369 Elmside Crossing,San Luis Obispo,CA,93407,United States
0035001gDF3Kx16TKI,4369 Elmside Crossing,San Luis Obispo,CA,93407,United States
00350005025X71HuU7,9 Ronald Regan Place,Jamaica,NY,11431,United States
00350077276mVu8zlf,237 Anderson Alley,Phoenix,AZ,85010,United States
0035002f4phh10J135,8 Northland Avenue,Lake Worth,FL,33462,United States
003500jfvOM6nIc8aO,93350 Oriole Lane,San Diego,CA,92153,United States
003500iz89fu9331OX,7 Esch Terrace,Hollywood,FL,33028,United States
003500YG19aOSPOLB7,02 Oriole Way,Pasadena,CA,91199,United States
00350016n29oo4khP8,7765 Hoffman Court,Orlando,FL,32808,United States
00350064p57IY8xO37,5 Jana Parkway,Bakersfield,CA,93386,United States
003500BX64bY9H09ay,495 Burning Wood Road,Orlando,FL,32835,United States
0035009uSP25tlv1Kb,08 Red Cloud Way,Brooklyn,NY,11225,United States
0035000WTotT1hZdzj,54 Marcy Pass,Tallahassee,FL,32304,United States
0035004ESVD6x3N2VZ,29 Beilfuss Plaza,Pasadena,CA,91103,United States
0035004CZ55874dM8f,32381 Cottonwood Plaza,Pasadena,CA,91103,United States
0035004lWT0bi8Mb02,131 Melvin Place,Rochester,NY,14652,United States
00350081HVSkl56w2f,17004 Holmberg Place,Orlando,FL,32885,United States
0035004292uOsx1LUZ,3 Calypso Trail,Anaheim,CA,92805,United States
003500e7SM5I5QFh54,20120 Sloan Hill,Seattle,WA,98121,United States
00350057T1U2n8Zl6G,45 Artisan Park,Phoenix,AZ,85015,United States
0035008Xw4lPx20b1P,38297 Kedzie Pass,Tampa,FL,33661,United States
00350021ei88r120kN,099 Rowland Center,Seattle,WA,98115,United States
003500X5kSCHJ36jnH,2 Stone Corner Terrace,Tallahassee,FL,32399,United States
0035008OPxC0Y4t2yT,77 Walton Street,Phoenix,AZ,85072,United States
003500QA4N9Q7mw8p9,77 Walton Street,Phoenix,AZ,85072,United States
003500NnIU0YurGi5R,77 Walton Street,Phoenix,AZ,85072,United States
003500FM733bKpykUb,16 Magdeline Lane,Phoenix,AZ,85083,United States
00350025fH3m382U5i,95538 Debs Drive,Hialeah,FL,33013,United States
003500q0w5kgaPd90p,1046 Burning Wood Trail,San Francisco,CA,94126,United States
003500rylCQjOkE03s,240 Transport Junction,Brooklyn,NY,11247,United States
003500q9132n07K0BV,35 Washington Crossing,Long Beach,CA,90831,United States
003500Zb16u5ZC2lXI,49 Farmco Center,Santa Clara,CA,95054,United States
003500199Tm1DX32GC,58109 Haas Avenue,Los Angeles,CA,90035,United States
003500VxAlzwUzKErs,37312 Waywood Circle,Buffalo,NY,14205,United States
003500k9zTpN29wGts,61 Corben Crossing,Fort Myers,FL,33994,United States
003500v405TS8Trvz2,04 Spohn Avenue,Richmond,CA,94807,United States
003500S2H4s3T37yli,6 Grim Plaza,Fresno,CA,93773,United States
003500u08AyCR0d5T9,877 Kenwood Circle,Miami,FL,33134,United States
0035000kfOAP3f6q86,33 Merry Place,Spring Hill,FL,34611,United States
003500NJM3uu4GfR17,3258 Trailsway Court,Miami,FL,33134,United States
003500I3aho217qNoL,4 Melody Point,Jamaica,NY,11499,United States
003500gt09EO29lWiF,47 Declaration Parkway,Los Angeles,CA,90030,United States
0035005103UXST65YO,56413 2nd Crossing,New York City,NY,10099,United States
003500l7tvrc9G4AR2,0458 Drewry Trail,Salinas,CA,93907,United States
0035001Jt1iGE89Gli,695 Acker Point,Portland,OR,97286,United States
003500S0sw0KdVX0Pc,1 Melby Point,Lakeland,FL,33805,United States
0035009PxIE8XUl8iF,4310 Old Shore Avenue,Largo,FL,33777,United States
003500VWPf5Et2364l,4310 Old Shore Avenue,Largo,FL,33777,United States
003500ZfFX1C6YsNML,4310 Old Shore Avenue,Largo,FL,33777,United States
0035006G04CHGVr2Vo,4310 Old Shore Avenue,Largo,FL,33777,United States
0035001PuG4n7yop3Z,21 Harbort Terrace,Alhambra,CA,91841,United States
0035007ck8vr313ojO,407 Vera Circle,Beaverton,OR,97075,United States
003500923Yd4sSY3V2,1620 Doe Crossing Junction,San Francisco,CA,94177,United States
003500KIAOMVh037VR,6203 Dunning Center,Tampa,FL,33610,United States
003500Llpwq2ToWxx4,42 Kings Circle,Vancouver,WA,98682,United States
003500Ef5Gh03iE817,3 Rowland Avenue,Saint Augustine,FL,32092,United States
0035000h075s0PFhf1,1206 Talmadge Circle,San Rafael,CA,94913,United States
003500FRgwQW3ZbxfQ,93 Spohn Hill,Lakeland,FL,33811,United States
003500oOwL2rC19O8A,06263 Randy Court,Fort Lauderdale,FL,33355,United States
003500FVbw1142fbq6,3826 Graedel Road,Fresno,CA,93762,United States
003500Xh1xGI88tIby,9695 Ilene Pass,Phoenix,AZ,85010,United States
0035006RWizoJy25w8,49 Main Alley,San Luis Obispo,CA,93407,United States
003500FJkUt0AYXQ50,33189 Leroy Park,San Jose,CA,95150,United States
0035004EUW2ZdF89I0,53355 Randy Way,Albany,NY,12232,United States
003500c2yn019wihgL,5651 Scofield Avenue,Fort Lauderdale,FL,33345,United States
003500Ly5VNkbu83UL,60 Pawling Street,Miami,FL,33180,United States
003500ct501GE609TH,5744 Northwestern Circle,San Francisco,CA,94159,United States
003500kbDJo0lijHnW,795 Mcbride Point,Irvine,CA,92710,United States
003500viWUPlNzMIxX,01477 Eagle Crest Crossing,Jacksonville,FL,32209,United States
003500d3Ksk85lPF6U,854 Loftsgordon Trail,Apache Junction,AZ,85219,United States
0035007mxvk7w3sHym,9598 Garrison Park,Daytona Beach,FL,32128,United States
00350043f8Q3Pf5rbA,73241 Corben Street,Tallahassee,FL,32304,United States
00350083eid2k0G9eC,9 Esch Road,Salinas,CA,93907,United States
003500X7utuDkbM969,9 Esch Road,Salinas,CA,93907,United States
003500U4z30uZbB97W,9 Esch Road,Salinas,CA,93907,United States
003500uo4a57f5zCt2,9 Esch Road,Salinas,CA,93907,United States
0035008x0aemD0c17B,9549 Arkansas Drive,San Jose,CA,95123,United States
003500608Q65joyS1q,6 Scoville Park,Naples,FL,34108,United States
0035002YV3Rf7FolZ8,9382 Waxwing Pass,New York City,NY,10034,United States
003500An3Wdvn9ittv,60604 Glacier Hill Park,Tampa,FL,33620,United States
003500MAdCt2669Asd,02 Montana Road,San Jose,CA,95128,United States
003500bbxRG37v92nr,32 Onsgard Parkway,San Diego,CA,92186,United States
003500h2NF1MT9oLyo,07 Almo Circle,Glendale,CA,91205,United States
003500l8KpawYdjIt8,6 Graedel Court,Brooklyn,NY,11247,United States
003500eixePTfwZx6X,1159 Springview Road,Fort Lauderdale,FL,33310,United States
003500T0hv35NAbLp2,037 Old Shore Trail,Van Nuys,CA,91411,United States
003500q8ah18C8MHk7,94782 Muir Hill,Spring Hill,FL,34611,United States
00350056LDM77ssts6,1334 Loeprich Hill,Phoenix,AZ,85099,United States
00350020b63yV5Sv13,800 David Terrace,Los Angeles,CA,90065,United States
003500Wvh5TBLB8hq1,111 Kensington Alley,San Jose,CA,95194,United States
003500NG12z9Nn3LU5,34533 South Trail,Sacramento,CA,94263,United States
003500BOYb5OEUH455,59 School Terrace,Spokane,WA,99220,United States
003500sQ2ZIc647b3t,7 Stuart Street,Van Nuys,CA,91406,United States
003500pp3HpfT34N12,391 Kim Street,Sacramento,CA,94273,United States
003500X5UpnF320gMu,902 Dennis Lane,Port Charlotte,FL,33954,United States
003500g5Jg43GFKsZ1,1 Mockingbird Alley,Fort Lauderdale,FL,33345,United States
003500hqU1u5BZ4H0i,7142 Mcbride Plaza,Santa Barbara,CA,93150,United States
003500x97FXeko1Ta4,42265 Barnett Crossing,New York City,NY,10155,United States
0035004CU6GdQdtwqG,9 Arkansas Way,Phoenix,AZ,85040,United States
003500Kjvx0rqu1832,9 Arkansas Way,Phoenix,AZ,85040,United States
003500bR47Xie0ghKx,9 Arkansas Way,Phoenix,AZ,85040,United States
003500nc2Xik69RO7g,9 Arkansas Way,Phoenix,AZ,85040,United States
003500G13TipebHTQu,9 Arkansas Way,Phoenix,AZ,85040,United States
0035005JDA8Jd38E42,151 Texas Junction,San Jose,CA,95123,United States
003500C9NOfM403gH7,62 Sunfield Plaza,Peoria,AZ,85383,United States
003500k37g84zehbdL,8580 Redwing Circle,Lancaster,CA,93584,United States
003500vPhe4u0a3788,4 Charing Cross Way,Orlando,FL,32891,United States
003500iEDx2VU4soUv,2898 Blackbird Terrace,Brooklyn,NY,11247,United States
003500CUxN9p85z3n4,38703 Toban Court,Rochester,NY,14619,United States
003500n4rq9p7nlhcf,39973 Blackbird Lane,Sarasota,FL,34233,United States
0035004eKQRAhpr070,17765 Loomis Hill,Glendale,AZ,85311,United States
003500QZuUuv21zf1J,878 Little Fleur Hill,Jamaica,NY,11407,United States
003500r84T4zkK8xb2,74378 Jenna Alley,Albany,NY,12247,United States
0035005xklM0MO9Mgk,712 Sachtjen Lane,Gainesville,FL,32627,United States
0035000Y783ZSAnYFG,689 Arkansas Court,Berkeley,CA,94712,United States
0035004dNrG87mlX6e,71887 Thompson Park,Spokane,WA,99215,United States
003500dtbK9U27abPM,52 Chive Terrace,Mesa,AZ,85210,United States
003500Mu9s1JN4Q6D1,52 Chive Terrace,Mesa,AZ,85210,United States
003500C6tp95RK3M4D,52 Chive Terrace,Mesa,AZ,85210,United States
003500Q2s1vEJ9Dw7K,52 Chive Terrace,Mesa,AZ,85210,United States
003500Y1Bj7CroGM24,9 Schiller Lane,Spokane,WA,99252,United States
003500IX56rpt21Z4a,42 Sauthoff Hill,Fort Myers,FL,33906,United States
003500P351IXnjF8bQ,39378 Gina Parkway,Peoria,AZ,85383,United States
00350042w9X544DjKy,6967 Dapin Road,Los Angeles,CA,90081,United States
003500L5V7Z0w7NbmS,515 Butternut Park,Miami,FL,33164,United States
003500l5905y6nXfd1,28281 Boyd Junction,Stockton,CA,95298,United States
003500sez63H7OJY1R,83482 Moland Trail,Miami,FL,33153,United States
003500va1EOI0NWd02,12 Continental Avenue,Lakeland,FL,33805,United States
003500jkqeMzsd50m5,8 Dwight Pass,Los Angeles,CA,90189,United States
003500Fs0pGtX87dJ9,35565 Carey Plaza,Portland,OR,97211,United States
0035007iB1md1qM90m,78 David Alley,Fresno,CA,93740,United States
003500e8ACd53JHn8V,78 David Alley,Fresno,CA,93740,United States
00350026tH54R2sRj7,78 David Alley,Fresno,CA,93740,United States
003500LhRAcuwJxpBz,78 David Alley,Fresno,CA,93740,United States
0035000s55b93o8m5y,98951 David Avenue,Tucson,AZ,85743,United States
003500qia36V43b243,57 Texas Park,Sarasota,FL,34233,United States
003500eKt6R27r8l5x,96380 Bayside Drive,Spring Hill,FL,34611,United States
003500VBW2FeR0K6uo,30403 Pierstorff Park,Bronx,NY,10464,United States
0035000Z9WKBUgbT5C,33 Londonderry Drive,Lake Worth,FL,33467,United States
003500U3isxh8Q4CdS,2 Northview Circle,Tacoma,WA,98481,United States
0035002LO49KgJ6teM,1 Moland Hill,Albany,NY,12227,United States
003500udQ7PlQN09zb,81414 Loftsgordon Plaza,Pasadena,CA,91199,United States
003500VQUDKM9k30A5,3303 Gina Hill,Tacoma,WA,98424,United States
003500I223Zq5EiY24,52002 Burrows Street,Utica,NY,13505,United States
003500D9Sz0d5HOCWk,6 Karstens Alley,Largo,FL,34643,United States
0035007UJju1264C80,40 Helena Drive,Phoenix,AZ,85040,United States
0035005IELslBkD1VX,361 Basil Terrace,Saint Petersburg,FL,33731,United States
003500uXUb01Z9y6WC,6 Chinook Pass,Seattle,WA,98140,United States
003500WzAM7nZRf9k4,9 Summerview Point,Tucson,AZ,85715,United States
003500T3i6B71Xnzd2,498 Sundown Parkway,Bronx,NY,10464,United States
0035004c4702Lyi9BA,71 Alpine Terrace,Jamaica,NY,11431,United States
003500827ij2R58zkh,86 Mitchell Pass,Syracuse,NY,13224,United States
00350043DT52gs2gR6,68116 Meadow Valley Plaza,Ocala,FL,34479,United States
003500qLYLf2M9lEyh,1069 Hermina Street,Flushing,NY,11355,United States
00350018fm2S7HiP31,89 Talisman Trail,West Palm Beach,FL,33421,United States
003500bZnpjVTw6QV5,89 Talisman Trail,West Palm Beach,FL,33421,United States
003500rPjnGj552CWZ,89 Talisman Trail,West Palm Beach,FL,33421,United States
00350072924f93r9V5,89 Talisman Trail,West Palm Beach,FL,33421,United States
003500P7p7u6pA6og1,3925 Loomis Pass,Concord,CA,94522,United States
003500ufUoLLTA81dT,44922 Melrose Parkway,Phoenix,AZ,85010,United States
003500oLbu9h0adfsY,21 Londonderry Parkway,Seattle,WA,98175,United States
003500e3apjELX7021,19884 Roth Hill,Ocala,FL,34474,United States
003500BNWZ0iLhQwJ0,6 Sycamore Pass,Tucson,AZ,85732,United States
003500awEL91cIa0Lp,5 Armistice Park,Homestead,FL,33034,United States
003500TGW6oRyDpl0e,709 Westport Lane,Ventura,CA,93005,United States
0035002RrSg7SP3cAr,452 Glacier Hill Pass,Spokane,WA,99220,United States
003500LgR4ZpcMC74R,33 Springview Center,Albany,NY,12210,United States
00350075u1wq1qj6LT,8 John Wall Pass,Oceanside,CA,92056,United States
003500CsitiV9Ng54R,5 Brown Pass,San Jose,CA,95155,United States
0035008761x27b27KF,78523 Jenifer Terrace,Pensacola,FL,32575,United States
003500kQZ3n97UoR0b,08 Cherokee Hill,Phoenix,AZ,85030,United States
003500aZoa231CI2RN,3 Kings Pass,Chula Vista,CA,91913,United States
0035001v2AN8mAaBQz,967 Bartillon Terrace,Bradenton,FL,34282,United States
003500t378q1pFgjh7,683 Old Gate Point,Spokane,WA,99220,United States
0035005cZP8a7zr8AT,7 Ridgeway Circle,Glendale,AZ,85311,United States
00350007juH5Vm1Vyc,8924 Glendale Street,Los Angeles,CA,90045,United States
003500LC9BODEiuTzm,8642 Anderson Trail,Saint Petersburg,FL,33731,United States
003500yBam6Qk2tb0j,9594 Moland Avenue,Rochester,NY,14614,United States
003500Jq51E0M32ZYx,59 Comanche Alley,Sacramento,CA,94207,United States
003500GFd2XfP8J8LB,542 Birchwood Street,San Francisco,CA,94110,United States
003500iHQrqr7fjfzy,73103 6th Drive,Fort Lauderdale,FL,33310,United States
003500bz7XmcyvfIeA,588 Meadow Vale Crossing,Tucson,AZ,85748,United States
003500P0s6k6UBz9e6,588 Meadow Vale Crossing,Tucson,AZ,85748,United States
003500yYHEOOGs9ONJ,588 Meadow Vale Crossing,Tucson,AZ,85748,United States
003500EaLU8y49c0dr,09 Kennedy Parkway,New York City,NY,10160,United States
003500KAD1Rg52jlA4,9 Park Meadow Alley,Buffalo,NY,14210,United States
003500rIzZWFcSYfZ4,42 Boyd Way,Oakland,CA,94660,United States
003500WK7ukc8P5Zx6,00626 Columbus Plaza,Corona,CA,92878,United States
003500LMBl7fiv20kH,0396 Elmside Road,Buffalo,NY,14215,United States
003500GN58r0v4M4fW,75 Nova Lane,Orange,CA,92862,United States
003500V827eC3i0H6K,88 Lighthouse Bay Way,New York City,NY,10004,United States
003500r3oyv6hD3LjX,88 Lighthouse Bay Way,New York City,NY,10004,United States
003500P7FM1y5287iR,88 Lighthouse Bay Way,New York City,NY,10004,United States
0035005pgMY4hK8mqp,868 Lien Lane,Bronx,NY,10454,United States
00350016770n2gBxVV,6 Laurel Plaza,Irvine,CA,92710,United States
003500ly0hIdyutxSG,895 Thierer Circle,Buffalo,NY,14276,United States
00350003Llb0LG95Dr,63963 Namekagon Center,Huntington Beach,CA,92648,United States
003500Op9n07IAC4zh,9148 Reindahl Avenue,Spokane,WA,99210,United States
003500Y36ow688p0Ww,799 Elka Terrace,Scottsdale,AZ,85260,United States
003500KIh3532wjCb9,56576 Rusk Parkway,Portland,OR,97221,United States
003500Kk5dPSwsY16R,518 Arkansas Place,Pasadena,CA,91125,United States
003500guzYXbv26lDJ,16 Kipling Crossing,Brooklyn,NY,11215,United States
0035003HiYoo1790Wu,6297 Dottie Lane,Pasadena,CA,91186,United States
0035003HDNx6k1t809,6297 Dottie Lane,Pasadena,CA,91186,United States
003500RCkyB1119SP8,6297 Dottie Lane,Pasadena,CA,91186,United States
003500I7W6UNK50r0L,160 Union Avenue,Buffalo,NY,14215,United States
003500Mgy862fHv4V9,9203 Holmberg Alley,Orlando,FL,32813,United States
0035006aEC57SS6538,91 Oriole Park,Sacramento,CA,95828,United States
003500M76Kvuu41N4w,1519 Thierer Pass,Zephyrhills,FL,33543,United States
003500u7PXn913FHom,04 Carey Pass,Orlando,FL,32803,United States
003500NKCSs2L9PHtL,04 Carey Pass,Orlando,FL,32803,United States
003500yWE2zQ0Q7y3Q,04 Carey Pass,Orlando,FL,32803,United States
00350003rHTbZ7wrP7,04 Carey Pass,Orlando,FL,32803,United States
0035007753zIHQ04yM,57 Rockefeller Hill,San Diego,CA,92145,United States
003500K2Jq90BA3nG8,7 Badeau Junction,West Palm Beach,FL,33416,United States
003500DGNs8zl8mC8F,82 Kipling Alley,South Lake Tahoe,CA,96154,United States
003500w0i76HMX4ce5,932 Express Street,Long Beach,CA,90831,United States
003500I40BOj6QDDE2,2 Acker Parkway,Albany,NY,12210,United States
003500tkuecE22kmaO,72680 Independence Junction,Elmira,NY,14905,United States
003500wis1sp7RSNYB,92 Paget Park,Syracuse,NY,13210,United States
003500z7HiN66M9tk4,92 Paget Park,Syracuse,NY,13210,United States
003500Q5iNi8CLgvJ3,92 Paget Park,Syracuse,NY,13210,United States
003500u1q0gBF00Co3,00408 Blackbird Court,Los Angeles,CA,90045,United States
003500b7A24FJQp116,9567 Florence Road,Santa Monica,CA,90410,United States
00350067Eyl9U0cl5F,93000 Arrowood Drive,Fullerton,CA,92640,United States
0035000Fmo0AVjuOei,9706 Dapin Lane,Saint Petersburg,FL,33705,United States
003500bc4ln30oVsmw,80 Wayridge Trail,Seattle,WA,98115,United States
003500Z84V77TA6qR1,97593 Main Pass,Albany,NY,12255,United States
003500giiXfKQ6275u,964 Buell Park,San Jose,CA,95150,United States
003500lf0Fklu0aZ7k,6510 Mayfield Center,West Palm Beach,FL,33416,United States
00350078GPL10PwFZO,9718 Norway Maple Avenue,New York City,NY,10099,United States
003500s0FzSieE3a8A,88 Weeping Birch Court,Phoenix,AZ,85030,United States
003500ZSnJBdE9wMnA,95 Cordelia Park,Pensacola,FL,32526,United States
003500tgRXqGOhf3Xv,95 Cordelia Park,Pensacola,FL,32526,United States
003500z3SG22VKkltB,95 Cordelia Park,Pensacola,FL,32526,United States
0035000tNfQOU3289H,95 Cordelia Park,Pensacola,FL,32526,United States
00350057ZuUy9x33ZX,4 Oakridge Circle,San Jose,CA,95160,United States
003500n3Ds5FtcNDR6,5 Kensington Road,Yakima,WA,98907,United States
003500M156J68NZa5f,90369 Sunfield Way,San Bernardino,CA,92424,United States
003500cI396o5jAMGr,751 Bowman Point,Seattle,WA,98166,United States
00350018wfzm6NTg48,5826 Loomis Hill,Los Angeles,CA,90015,United States
003500hSRvM15mfUop,299 Dawn Hill,Mesa,AZ,85210,United States
0035007qbF107MM1c2,8 Carpenter Avenue,Los Angeles,CA,90030,United States
00350007xCfpuFSo9s,49875 Fremont Drive,Miami,FL,33190,United States
0035002775B05Ix217,983 Main Lane,New York City,NY,10275,United States
003500WI444kFdT9vl,522 Michigan Street,San Diego,CA,92127,United States
003500Y95R8aHLye09,32748 Debs Pass,West Palm Beach,FL,33405,United States
003500Dm4y3tywW57b,39 Rieder Drive,Bradenton,FL,34282,United States
0035008IvQH4U13PBm,99 Center Place,Torrance,CA,90510,United States
0035006Y9Y1ozON1c4,0574 Scoville Avenue,Vancouver,WA,98664,United States
003500v6cf69C4l7k6,5229 Grover Junction,Winter Haven,FL,33884,United States
00350049a5cED8sZfw,606 Katie Plaza,Melbourne,FL,32941,United States
0035008p2i9OPJ0v79,606 Katie Plaza,Melbourne,FL,32941,United States
003500jl2Cu84MiDRG,606 Katie Plaza,Melbourne,FL,32941,United States
003500Z0mrLA4fsJ6R,1705 Mariners Cove Junction,Tallahassee,FL,32399,United States
003500TC5IU5Oz8IJy,59 Buell Drive,New York City,NY,10110,United States
003500nHP4QFwNgMt7,85 Bluestem Point,Jacksonville,FL,32220,United States
003500e0vc1mo6uoyN,77360 Warbler Terrace,New York City,NY,10009,United States
0035008902hLR78BBL,13383 Loeprich Pass,Phoenix,AZ,85035,United States
003500O7c8D93m16wE,76 Ludington Place,Lakewood,WA,98498,United States
0035005Wi8miH01aJL,2 Calypso Junction,Jacksonville,FL,32244,United States
003500r0G8XeL7dP63,6600 Prairie Rose Street,Sacramento,CA,94237,United States
0035007IT665nUf58t,6600 Prairie Rose Street,Sacramento,CA,94237,United States
00350037b9Q9IdE9vw,6600 Prairie Rose Street,Sacramento,CA,94237,United States
003500zaFsBws63pLj,55019 Sloan Place,Gainesville,FL,32605,United States
003500UcKabu6ZxHg5,5 Fremont Place,San Francisco,CA,94126,United States
0035002AIUlEMa6itq,2 Tennyson Court,Tampa,FL,33686,United States
003500qsWZ4Zc9VU88,35 Eastwood Pass,Seattle,WA,98127,United States
003500y1n0D6tNV5U1,1 Bluestem Lane,Jamaica,NY,11480,United States
003500Srgb6GY10LxE,1 Bluestem Lane,Jamaica,NY,11480,United States
0035003U9SMHPM1mAB,1 Bluestem Lane,Jamaica,NY,11480,United States
0035007RcAjs4sFGS6,55307 Briar Crest Center,Santa Cruz,CA,95064,United States
003500iyWR4mPAzhXd,720 Shelley Parkway,San Diego,CA,92132,United States
003500Jt863R5c8r94,8 Autumn Leaf Pass,Miami,FL,33169,United States
003500RWA9m4183b7g,863 Arrowood Hill,Bakersfield,CA,93311,United States
00350084k6bjl0KpGf,2487 Golf Trail,Jacksonville,FL,32259,United States
003500Ob7wKq6A84Z9,52 Gina Point,Punta Gorda,FL,33982,United States
003500vE9RWsW2q4G9,93283 Orin Avenue,Spokane,WA,99210,United States
0035007xZ71y1j70O9,8 Talmadge Pass,Simi Valley,CA,93094,United States
0035003joVIu9vSQNw,532 Northfield Junction,Bronx,NY,10474,United States
003500x0jdTxPsQzuM,96 Fair Oaks Park,Rochester,NY,14609,United States
003500dr1Mbdv7iAXk,629 Ludington Court,Portland,OR,97271,United States
003500uhf01ik2iBi5,120 Continental Court,Rochester,NY,14609,United States
003500emX2KX1GGN82,120 Continental Court,Rochester,NY,14609,United States
003500I5Po30AJP6M2,120 Continental Court,Rochester,NY,14609,United States
003500dF4e4abH7jFN,120 Continental Court,Rochester,NY,14609,United States
003500yP0Y2YCob8kd,907 Erie Street,Seattle,WA,98104,United States
003500Micx917F1atg,2156 Thierer Court,Portland,OR,97221,United States
0035002K3eHvjVGr95,3 Barnett Avenue,Melbourne,FL,32919,United States
003500H077tyZkVt27,58747 Kingsford Place,Oakland,CA,94660,United States
003500UUU47zP74VWU,0 Crescent Oaks Plaza,Zephyrhills,FL,33543,United States
003500T3AFbMci9dfq,44440 Chive Lane,Santa Barbara,CA,93111,United States
003500AXo41deY5q3x,9 Buena Vista Road,Pasadena,CA,91131,United States
003500BkaFX74w4gR5,04924 Carey Pass,Van Nuys,CA,91406,United States
003500h140Ec9b35UX,4384 Gerald Terrace,New York City,NY,10004,United States
00350083mrX6H7uHo4,25 Sauthoff Court,South Lake Tahoe,CA,96154,United States
0035000o3nReb4v20Y,8196 North Crossing,Van Nuys,CA,91499,United States
003500yYW4KZ3U2S0P,95 Ludington Terrace,Long Beach,CA,90810,United States
003500F2u5UHh4453y,0634 Grasskamp Court,Clearwater,FL,34620,United States
003500aUy2aCM19l6G,0634 Grasskamp Court,Clearwater,FL,34620,United States
003500C7nXk5l19h9k,0634 Grasskamp Court,Clearwater,FL,34620,United States
003500g451zyA7TuD2,0634 Grasskamp Court,Clearwater,FL,34620,United States
003500Vo93GM8nBq9z,61548 International Park,Oakland,CA,94611,United States
003500D8dz9ZrJ5y7U,7 Prairieview Circle,San Jose,CA,95133,United States
003500NDV6T08OQ85z,820 Prairieview Junction,Rochester,NY,14646,United States
0035002G50oJ87FR79,3184 Dovetail Plaza,San Diego,CA,92153,United States
003500J3Q96yz7IWr7,37 Springview Plaza,San Diego,CA,92160,United States
003500EjJY1b59MdZA,62 Crescent Oaks Circle,Orlando,FL,32813,United States
00350087k0l9ujM89u,550 Lake View Lane,San Diego,CA,92196,United States
003500MWIM7Btew4Cx,9192 Glacier Hill Road,San Bernardino,CA,92415,United States
003500001RPc9EotPu,04306 Fairfield Street,Tampa,FL,33605,United States
003500rVsN909Iq5g2,87 Roxbury Plaza,Jamaica,NY,11447,United States
0035003Tb3yQV2MRtH,825 Buena Vista Parkway,Mesa,AZ,85205,United States
0035003wB1FHXcnNAB,35 Sunbrook Point,Spring Hill,FL,34611,United States
003500orAYmoZ5d44o,95135 Kim Lane,Oakland,CA,94627,United States
003500ZxiH49v8wXWi,65124 Talisman Avenue,Corona,CA,92878,United States
003500XO0B6f3gq38K,823 Hollow Ridge Way,Fort Lauderdale,FL,33325,United States
0035005Ku2l3T7V7N9,42 3rd Crossing,Brooklyn,NY,11241,United States
003500ebx220f79CQN,5 Bonner Plaza,Buffalo,NY,14225,United States
0035000MY0hwX7JN6v,79 Stephen Trail,Santa Monica,CA,90405,United States
0035002R1Kn8iE3Hzr,7 Waywood Road,Sacramento,CA,95894,United States
003500u0Y35y9ocba9,04 Springview Trail,Jacksonville,FL,32236,United States
003500IbA8IW98703G,3648 Annamark Place,Santa Clara,CA,95054,United States
003500Yf8GLkATs7P6,176 Graedel Center,Vancouver,WA,98682,United States
003500aPB6ZnM7PbC1,408 Starling Crossing,Rochester,NY,14609,United States
003500NEaR241yPl4O,5 Forest Dale Court,Glendale,CA,91205,United States
0035007PT8A05k6X6w,12 Paget Street,New York City,NY,10292,United States
003500L54KQk4E7PEO,9 Sunnyside Junction,Sacramento,CA,94291,United States
003500S5NvaKKZoOUD,86342 Hovde Drive,Jamaica,NY,11436,United States
003500wyGMNN9lsT85,079 Carpenter Crossing,Whittier,CA,90605,United States
0035008TN9Arlj9Rk6,0477 Daystar Circle,Saint Petersburg,FL,33742,United States
003500q3VZq6EvX680,38 Quincy Avenue,San Diego,CA,92196,United States
0035007J9MmtoyHN6O,053 Jackson Way,Phoenix,AZ,85035,United States
0035007w13g0FOgjH0,1 Gulseth Pass,Schenectady,NY,12305,United States
003500783bQ2OUO8C1,9885 Hooker Park,Stockton,CA,95205,United States
00350055x0IuEeNwgb,18758 Del Mar Junction,Melbourne,FL,32919,United States
003500EFjuKH1c2vj6,34313 Logan Pass,Fort Lauderdale,FL,33320,United States
003500MuInHG2OMzGh,13342 Buhler Street,Rochester,NY,14619,United States
003500BfxrRo310q5C,2 Ridgeview Plaza,Hollywood,FL,33028,United States
003500bK8Sojk9v9TF,5248 Bartelt Crossing,Tampa,FL,33661,United States
003500r1lfS5ciENWK,35197 Buell Drive,Tacoma,WA,98447,United States
003500zw3jfmgkDaB7,0546 Forest Drive,Boynton Beach,FL,33436,United States
003500v90QI0d4E2LE,61206 Union Plaza,Santa Barbara,CA,93111,United States
003500Atgy21c3n3k3,3377 East Plaza,Buffalo,NY,14276,United States
003500z4S5V6DP3N05,9807 Dryden Drive,Bradenton,FL,34210,United States
003500FkPi61oLDN9m,8 Norway Maple Place,Fort Pierce,FL,34949,United States
003500I2WJ5yMIqBHG,62 Gerald Drive,Seattle,WA,98109,United States
0035000F8Q2hnR113p,720 Grover Plaza,Mesa,AZ,85215,United States
003500bGxHmT3451M6,720 Grover Plaza,Mesa,AZ,85215,United States
0035007Ok2x6C2xd11,720 Grover Plaza,Mesa,AZ,85215,United States
003500l60OK0F5enO4,720 Grover Plaza,Mesa,AZ,85215,United States
003500JOJ6efe43a5q,720 Grover Plaza,Mesa,AZ,85215,United States
0035007LU9FUbkJrU3,0513 Division Park,Vancouver,WA,98682,United States
003500E414783d6rmu,86942 Thierer Lane,Sacramento,CA,94245,United States
003500XAqDO7E7m3kT,649 Farwell Hill,Tucson,AZ,85710,United States
003500cLL572j1t9Xy,639 International Terrace,New York City,NY,10160,United States
00350081SpYV3Es9bK,954 Hooker Pass,San Rafael,CA,94913,United States
0035007g72M83fh26n,8298 Jay Pass,Syracuse,NY,13224,United States
003500nb6ag4jr8TV8,09 Utah Parkway,Torrance,CA,90510,United States
00350033Mh64S4W1p2,51 Karstens Place,New York City,NY,10045,United States
003500twhGWZ6dVjXk,938 Schlimgen Terrace,Orlando,FL,32854,United States
0035004aZEsHF1gaU2,16 Marcy Crossing,Berkeley,CA,94705,United States
003500i1dWYb0xA46Z,77353 Superior Terrace,Naples,FL,33963,United States
003500Ki59eXfcF8wG,37 Village Green Parkway,Buffalo,NY,14215,United States
0035007DedCTkexc9E,3 Sloan Point,Saint Petersburg,FL,33705,United States
0035005q8jpdplrDRs,8264 Doe Crossing Trail,Kent,WA,98042,United States
0035005w4Iw9joW3zz,6487 Eastlawn Street,Ventura,CA,93005,United States
003500GfbIJ1J7IZxO,79605 Maple Wood Terrace,Phoenix,AZ,85035,United States
003500bRso0mELsXG8,1634 Crescent Oaks Terrace,Jacksonville,FL,32277,United States
0035009Qr39KpU3AXR,83352 Merry Hill,Lehigh Acres,FL,33972,United States
003500A1BBY19Eblv9,43 Browning Trail,Phoenix,AZ,85062,United States
0035009UH42zTWv1J0,405 Doe Crossing Avenue,New Hyde Park,NY,11044,United States
0035008RYDeWB9snPR,405 Doe Crossing Avenue,New Hyde Park,NY,11044,United States
0035009z9ODOhwRb7w,405 Doe Crossing Avenue,New Hyde Park,NY,11044,United States
0035009z0SHfSG9iy0,405 Doe Crossing Avenue,New Hyde Park,NY,11044,United States
003500y5d5EVEk3Nk4,405 Doe Crossing Avenue,New Hyde Park,NY,11044,United States
003500d0HARwL4BmU6,151 Waxwing Park,Spokane,WA,99215,United States
003500uVhAjX1qfw1V,77313 Dryden Plaza,Brooklyn,NY,11215,United States
0035009081Bt4PPePq,8 Linden Crossing,San Bernardino,CA,92415,United States
00350017m0323py3k4,01 Loomis Lane,Long Beach,CA,90831,United States
0035002VzNcb9s1Kpq,27 Lighthouse Bay Park,Apache Junction,AZ,85219,United States
0035005TOfR3cw3E6K,9 Sachtjen Road,Phoenix,AZ,85099,United States
003500KH5585el7G5p,18700 1st Drive,Pasadena,CA,91186,United States
0035005o8yHNZqlb36,786 Gulseth Parkway,Pasadena,CA,91103,United States
003500W88P8MbnLN2V,05995 Westend Trail,Orlando,FL,32891,United States
0035001qG8xHZy8vMH,499 Summerview Place,Beaverton,OR,97075,United States
0035004CVA3aRBa3fh,5 Vermont Place,Fort Lauderdale,FL,33336,United States
003500wTOyRaMGi59V,8 Thierer Park,Fresno,CA,93740,United States
0035007T5S9oPr5231,04764 Morrow Drive,New York City,NY,10249,United States
003500f9tJst1ld92V,7 Onsgard Avenue,Buffalo,NY,14276,United States
003500IVuYgZ4CDJiO,498 Maryland Street,South Lake Tahoe,CA,96154,United States
003500L3Ys7584c88i,76 Burning Wood Circle,Alhambra,CA,91841,United States
0035007jl94si5Q3Cw,6664 Schiller Lane,Buffalo,NY,14210,United States
003500USTY85T3KQ4f,4 Amoth Alley,San Bernardino,CA,92415,United States
0035001zqf1WDL3l0N,297 Upham Crossing,Tacoma,WA,98447,United States
0035007CjF4Mk7jMAA,59 Gina Place,Jamaica,NY,11447,United States
003500JY74s3FgGrX7,08 Bunker Hill Pass,Bakersfield,CA,93381,United States
003500FPEmv8l721l3,465 Carioca Place,Inglewood,CA,90310,United States
003500vs81e56rx7nq,78 Homewood Street,San Francisco,CA,94169,United States
003500Jzn6DmtoWH6n,57331 Iowa Circle,Spring Hill,FL,34611,United States
00350040zizYj9A1ny,30371 6th Drive,Palm Bay,FL,32909,United States
003500X96oSGvGeP80,48022 Arrowood Trail,Miami,FL,33164,United States
003500RwA71J70tnZ7,9579 Harbort Park,Phoenix,AZ,85062,United States
003500K5MYD6hhTzX5,3213 Monument Alley,New Hyde Park,NY,11044,United States
003500JII32LdyMkL6,468 Parkside Point,Sarasota,FL,34233,United States
0035007ONbzh75rA8i,468 Parkside Point,Sarasota,FL,34233,United States
00350022go27p6N1HQ,468 Parkside Point,Sarasota,FL,34233,United States
0035003pPieRg8DZJ7,468 Parkside Point,Sarasota,FL,34233,United States
003500338SElwLOJaH,60174 Menomonie Way,Buffalo,NY,14276,United States
00350042JJ7qK7l503,09924 Brown Avenue,Pomona,CA,91797,United States
0035007Bt0rZRsT4J7,9 Packers Hill,Fresno,CA,93740,United States
003500I7o2jY58yJT9,520 Miller Trail,Long Beach,CA,90847,United States
00350021MGdZJNx5SL,693 Moulton Drive,Scottsdale,AZ,85260,United States
0035004k9Wmlzw2405,18652 Magdeline Parkway,Moreno Valley,CA,92555,United States
0035003F1LuB38Vx1H,6419 Paget Avenue,New York City,NY,10125,United States
0035000hm9yb1yR8cl,19620 Grover Trail,Sacramento,CA,94250,United States
00350016R0V283n86c,6899 Acker Trail,Saint Petersburg,FL,33731,United States
003500x3p8T3USpEdC,80862 Brentwood Terrace,Panama City,FL,32405,United States
003500u05LJr8f2u9n,80418 Haas Parkway,Pasadena,CA,91131,United States
0035000M2i4Ooe574h,7 Hanson Terrace,Tallahassee,FL,32399,United States
0035003X6n7SOd4S3Y,5 Sloan Alley,Gainesville,FL,32610,United States
003500U105pxCuzC48,26 Jana Alley,Fort Lauderdale,FL,33330,United States
003500seF83nQRI38z,2 Judy Terrace,Tampa,FL,33686,United States
003500S2ZJz8u3LvE9,5206 Burrows Trail,Tampa,FL,33661,United States
003500crke5TM8XGQ7,992 Truax Parkway,Melbourne,FL,32919,United States
0035007l5rZD8EZUew,210 Cherokee Hill,San Jose,CA,95128,United States
003500t674tePj96t8,1126 Susan Lane,Syracuse,NY,13224,United States
003500K8O6gYpSS06f,5 Lien Avenue,Brooklyn,NY,11205,United States
003500ahOjM66J9e53,275 Cordelia Avenue,Seattle,WA,98195,United States
0035006nBXuy70qjTo,448 Derek Circle,Jamaica,NY,11407,United States
003500Mw7nvIB971Ez,0 Fairview Terrace,Port Charlotte,FL,33954,United States
003500z8Ei4f51iI1M,90 Hermina Hill,Los Angeles,CA,90094,United States
0035006Dxyk6EbEm4e,9 Brentwood Crossing,Spokane,WA,99220,United States
00350097RmSv7cXi57,47022 Kennedy Trail,Tucson,AZ,85754,United States
003500xKuE372Did9I,1956 New Castle Hill,Long Beach,CA,90847,United States
00350057eN0h29eaj8,1956 New Castle Hill,Long Beach,CA,90847,United States
003500KL9YE64cU4x4,1956 New Castle Hill,Long Beach,CA,90847,United States
00350013ToOKS8HZw3,1956 New Castle Hill,Long Beach,CA,90847,United States
003500h4SyV5eG4B8K,1244 Graceland Drive,Saint Petersburg,FL,33705,United States
003500zoMfRzN9s33s,5524 Green Ridge Way,Pensacola,FL,32520,United States
003500cXOGkuz4DW6T,2970 Columbus Way,Mesa,AZ,85210,United States
00350042S87Kf9s59E,0406 Anzinger Pass,San Diego,CA,92196,United States
003500xpR18nkJByGY,976 Sunnyside Junction,Buffalo,NY,14225,United States
003500bFpg9f6yE5b7,4000 Clove Terrace,Tampa,FL,33633,United States
003500l4W4zZieJ0KZ,34 La Follette Alley,Oakland,CA,94616,United States
003500Tw1kUNp2YS1f,05 Jenna Plaza,Seattle,WA,98121,United States
003500gAUNSBbr0za1,9 Corry Drive,Miami,FL,33158,United States
0035000DEyFL7M8mr1,795 Gale Crossing,Newport Beach,CA,92662,United States
003500mCz0aG2bheoF,92 Transport Terrace,Lakeland,FL,33811,United States
003500Nrb7Zl1H6F59,74972 Rowland Plaza,Palmdale,CA,93591,United States
003500LqYno87dkzD4,51 Clove Pass,Pasadena,CA,91199,United States
003500X3S8Wj8U1T4Y,8 Waxwing Way,San Bernardino,CA,92405,United States
003500U6GLH22I51H4,7265 3rd Way,Syracuse,NY,13251,United States
003500AQEu1V6v23VW,7265 3rd Way,Syracuse,NY,13251,United States
003500qGI633o359Hz,7265 3rd Way,Syracuse,NY,13251,United States
003500RPks45CxAOsV,7265 3rd Way,Syracuse,NY,13251,United States
003500XI2tS0f3pqUR,113 Springs Center,Jacksonville,FL,32230,United States
0035006jJE3pB99FV2,3 Marquette Alley,Phoenix,AZ,85035,United States
003500OF9IAKWbntuT,03 North Drive,Hollywood,FL,33023,United States
003500w2yUNtW9p342,86393 Shoshone Hill,Orlando,FL,32854,United States
003500oG080ZQ62fdG,88 Commercial Pass,New York City,NY,10079,United States
003500wDzkcOIx3ej0,41 Truax Plaza,Santa Barbara,CA,93111,United States
0035008SbDh5i6TWZE,63615 Shasta Circle,Lakeland,FL,33811,United States
003500DIUsnjavYm8V,33 Maryland Drive,Jacksonville,FL,32244,United States
003500Uyc268JtA49V,33 Maryland Drive,Jacksonville,FL,32244,United States
003500Qh6YudW7wwfZ,33 Maryland Drive,Jacksonville,FL,32244,United States
003500FiH82C9C86Ir,4 Towne Place,Sacramento,CA,95818,United States
003500pEz07K05Omk5,9 Commercial Terrace,San Francisco,CA,94132,United States
003500H8Mq06w1Z6L1,219 Annamark Road,San Francisco,CA,94121,United States
003500M3b2zNnCiTAb,42802 Sundown Hill,Staten Island,NY,10310,United States
003500ddkUui7T002r,90 Russell Pass,Rochester,NY,14614,United States
00350001a74B7uU6yZ,90 Russell Pass,Rochester,NY,14614,United States
003500i7R8BkJ6xvpI,90 Russell Pass,Rochester,NY,14614,United States
003500SNzg10eV2IKL,8048 Claremont Crossing,Albany,NY,12237,United States
003500URn76xrU47fh,87 Milwaukee Hill,Tucson,AZ,85710,United States
003500Fm25A1jaJ7Bp,172 Kingsford Parkway,New York City,NY,10099,United States
003500R3g40XOKy1jV,332 Hanover Lane,Glendale,CA,91210,United States
003500A13Bd82h4CzK,213 Sugar Plaza,Portland,OR,97271,United States